ONEWEB-0492             
1 54114U 22138B   25088.87344086  .00000125  00000+0  28100-3 0  9995
2 54114  87.9240  33.2803 0001862  73.2732 286.8605 13.19724249118239
ONEWEB-0495             
1 54115U 22138C   25088.85134008  .00000108  00000+0  23693-3 0  9998
2 54115  87.9238  33.2960 0002457  65.8620 294.2769 13.19726529118210
ONEWEB-0497             
1 54116U 22138D   25089.24305982  .00000137  00000+0  31101-3 0  9999
2 54116  87.9237  33.1935 0001964  76.2794 283.8557 13.19726694119124
ONEWEB-0499             
1 54117U 22138E   25089.52894854 -.00000004  00000+0 -43480-4 0  9991
2 54117  87.9239  33.1515 0002304  83.9687 276.1708 13.19728058119170
ONEWEB-0500             
1 54118U 22138F   25088.84975430  .00000071  00000+0  14505-3 0  9993
2 54118  87.9234  33.2734 0001858  78.8536 281.2805 13.19728225118225
ONEWEB-0501             
1 54119U 22138G   25089.33465299  .00000109  00000+0  23873-3 0  9996
2 54119  87.9236  33.1717 0002288  71.3241 288.8140 13.19728885119135
ONEWEB-0502             
1 54120U 22138H   25089.09299924  .00000061  00000+0  11954-3 0  9995
2 54120  87.9235  33.2048 0002201  77.2240 282.9139 13.19723883119128
ONEWEB-0503             
1 54121U 22138J   25088.85449097  .00000075  00000+0  15613-3 0  9998
2 54121  87.9233  33.2574 0002149  87.9905 272.1474 13.19724119118213
